{
  "type": "FeatureCollection",
  "features": [
    {
      "type": "Feature",
      "properties": {
        "norad_id": 66580,
        "name": "STARLINK-35872",
        "group": "last-30-days",
        "lat": -22.858920943805273,
        "lon": -17.397033006736446,
        "alt_km": 416.70014953584086,
        "timestamp": "2025-12-10T05:46:12.575794+00:00",
        "meta_object_name": "STARLINK-35872",
        "meta_object_id": "2025-268Z",
        "meta_epoch": "2025-12-09T20:00:01.999008",
        "meta_mean_motion": 15.50599421,
        "meta_eccentricity": 0.0001857,
        "meta_inclination": 43.0006,
        "meta_ra_of_asc_node": 138.0871,
        "meta_arg_of_pericenter": 273.1929,
        "meta_mean_anomaly": 186.4911,
        "meta_ephemeris_type": 0,
        "meta_classification_type": "U",
        "meta_norad_cat_id": 66580,
        "meta_element_set_no": 999,
        "meta_rev_at_epoch": 420,
        "meta_bstar": -0.0010574,
        "meta_mean_motion_dot": -0.00061935,
        "meta_mean_motion_ddot": 0,
        "tle_line1": "1 66580U 25268Z   25343.83335647 -.00061935  00000+0 -10574-2 0  9998",
        "tle_line2": "2 66580  43.0006 138.0871 0001857 273.1929 186.4911 15.50599421  4209"
      },
      "geometry": {
        "type": "Point",
        "coordinates": [
          -17.397033006736446,
          -22.858920943805273
        ]
      }
    },
    {
      "type": "Feature",
      "properties": {
        "norad_id": 66581,
        "name": "STARLINK-35744",
        "group": "last-30-days",
        "lat": -24.011037096061322,
        "lon": -15.743227451721387,
        "alt_km": 416.7306579906617,
        "timestamp": "2025-12-10T05:46:12.575804+00:00",
        "meta_object_name": "STARLINK-35744",
        "meta_object_id": "2025-268AA",
        "meta_epoch": "2025-12-09T20:00:01.999008",
        "meta_mean_motion": 15.50595639,
        "meta_eccentricity": 0.0001938,
        "meta_inclination": 43.0006,
        "meta_ra_of_asc_node": 138.0816,
        "meta_arg_of_pericenter": 274.3999,
        "meta_mean_anomaly": 187.1932,
        "meta_ephemeris_type": 0,
        "meta_classification_type": "U",
        "meta_norad_cat_id": 66581,
        "meta_element_set_no": 999,
        "meta_rev_at_epoch": 415,
        "meta_bstar": -0.00083112,
        "meta_mean_motion_dot": -0.00048827,
        "meta_mean_motion_ddot": 0,
        "tle_line1": "1 66581U 25268AA  25343.83335647 -.00048827  00000+0 -83112-3 0  9993",
        "tle_line2": "2 66581  43.0006 138.0816 0001938 274.3999 187.1932 15.50595639  4151"
      },
      "geometry": {
        "type": "Point",
        "coordinates": [
          -15.743227451721387,
          -24.011037096061322
        ]
      }
    },
    {
      "type": "Feature",
      "properties": {
        "norad_id": 66582,
        "name": "STARLINK-35746",
        "group": "last-30-days",
        "lat": -25.147010187980978,
        "lon": -14.055092811778367,
        "alt_km": 416.8698920152965,
        "timestamp": "2025-12-10T05:46:12.575814+00:00",
        "meta_object_name": "STARLINK-35746",
        "meta_object_id": "2025-268AB",
        "meta_epoch": "2025-12-09T20:00:01.999008",
        "meta_mean_motion": 15.50571388,
        "meta_eccentricity": 0.0002007,
        "meta_inclination": 43.0006,
        "meta_ra_of_asc_node": 138.0775,
        "meta_arg_of_pericenter": 277.3227,
        "meta_mean_anomaly": 186.2171,
        "meta_ephemeris_type": 0,
        "meta_classification_type": "U",
        "meta_norad_cat_id": 66582,
        "meta_element_set_no": 999,
        "meta_rev_at_epoch": 420,
        "meta_bstar": -0.00071252,
        "meta_mean_motion_dot": -0.00041909,
        "meta_mean_motion_ddot": 0,
        "tle_line1": "1 66582U 25268AB  25343.83335647 -.00041909  00000+0 -71252-3 0  9990",
        "tle_line2": "2 66582  43.0006 138.0775 0002007 277.3227 186.2171 15.50571388  4207"
      },
      "geometry": {
        "type": "Point",
        "coordinates": [
          -14.055092811778367,
          -25.147010187980978
        ]
      }
    },
    {
      "type": "Feature",
      "properties": {
        "norad_id": 66583,
        "name": "STARLINK-35941",
        "group": "last-30-days",
        "lat": -26.268802473150412,
        "lon": -12.328367904738398,
        "alt_km": 416.85621544895366,
        "timestamp": "2025-12-10T05:46:12.575824+00:00",
        "meta_object_name": "STARLINK-35941",
        "meta_object_id": "2025-268AC",
        "meta_epoch": "2025-12-09T20:00:01.999008",
        "meta_mean_motion": 15.50609525,
        "meta_eccentricity": 0.0002024,
        "meta_inclination": 43.0004,
        "meta_ra_of_asc_node": 138.0719,
        "meta_arg_of_pericenter": 276.797,
        "meta_mean_anomaly": 188.6292,
        "meta_ephemeris_type": 0,
        "meta_classification_type": "U",
        "meta_norad_cat_id": 66583,
        "meta_element_set_no": 999,
        "meta_rev_at_epoch": 420,
        "meta_bstar": -0.0012477,
        "meta_mean_motion_dot": -0.00072944,
        "meta_mean_motion_ddot": 0,
        "tle_line1": "1 66583U 25268AC  25343.83335647 -.00072944  00000+0 -12477-2 0  9997",
        "tle_line2": "2 66583  43.0004 138.0719 0002024 276.7970 188.6292 15.50609525  4206"
      },
      "geometry": {
        "type": "Point",
        "coordinates": [
          -12.328367904738398,
          -26.268802473150412
        ]
      }
    },
    {
      "type": "Feature",
      "properties": {
        "norad_id": 66584,
        "name": "STARLINK-35939",
        "group": "last-30-days",
        "lat": -27.36730795138269,
        "lon": -10.570891853554688,
        "alt_km": 416.9154098940344,
        "timestamp": "2025-12-10T05:46:12.575834+00:00",
        "meta_object_name": "STARLINK-35939",
        "meta_object_id": "2025-268AD",
        "meta_epoch": "2025-12-09T20:00:01.999008",
        "meta_mean_motion": 15.50608561,
        "meta_eccentricity": 0.0001911,
        "meta_inclination": 43.0006,
        "meta_ra_of_asc_node": 138.0674,
        "meta_arg_of_pericenter": 275.4701,
        "meta_mean_anomaly": 191.8761,
        "meta_ephemeris_type": 0,
        "meta_classification_type": "U",
        "meta_norad_cat_id": 66584,
        "meta_element_set_no": 999,
        "meta_rev_at_epoch": 420,
        "meta_bstar": -0.0012577,
        "meta_mean_motion_dot": -0.00073514,
        "meta_mean_motion_ddot": 0,
        "tle_line1": "1 66584U 25268AD  25343.83335647 -.00073514  00000+0 -12577-2 0  9993",
        "tle_line2": "2 66584  43.0006 138.0674 0001911 275.4701 191.8761 15.50608561  4207"
      },
      "geometry": {
        "type": "Point",
        "coordinates": [
          -10.570891853554688,
          -27.36730795138269
        ]
      }
    },
    {
      "type": "Feature",
      "properties": {
        "norad_id": 66585,
        "name": "STARLINK-35963",
        "group": "last-30-days",
        "lat": -28.44208047799003,
        "lon": -8.780661029689893,
        "alt_km": 417.18438127192985,
        "timestamp": "2025-12-10T05:46:12.575844+00:00",
        "meta_object_name": "STARLINK-35963",
        "meta_object_id": "2025-268AE",
        "meta_epoch": "2025-12-09T20:00:01.999008",
        "meta_mean_motion": 15.50612956,
        "meta_eccentricity": 0.0001696,
        "meta_inclination": 43.0007,
        "meta_ra_of_asc_node": 138.0626,
        "meta_arg_of_pericenter": 284.4089,
        "meta_mean_anomaly": 184.8489,
        "meta_ephemeris_type": 0,
        "meta_classification_type": "U",
        "meta_norad_cat_id": 66585,
        "meta_element_set_no": 999,
        "meta_rev_at_epoch": 420,
        "meta_bstar": -0.0012807,
        "meta_mean_motion_dot": -0.00074854,
        "meta_mean_motion_ddot": 0,
        "tle_line1": "1 66585U 25268AE  25343.83335647 -.00074854  00000+0 -12807-2 0  9998",
        "tle_line2": "2 66585  43.0007 138.0626 0001696 284.4089 184.8489 15.50612956  4207"
      },
      "geometry": {
        "type": "Point",
        "coordinates": [
          -8.780661029689893,
          -28.44208047799003
        ]
      }
    },
    {
      "type": "Feature",
      "properties": {
        "norad_id": 66586,
        "name": "TJS-21",
        "group": "last-30-days",
        "lat": 12.117311665269792,
        "lon": 168.78927686679216,
        "alt_km": 10657.893024501729,
        "timestamp": "2025-12-10T05:46:12.575856+00:00",
        "meta_object_name": "TJS-21",
        "meta_object_id": "2025-269A",
        "meta_epoch": "2025-12-09T05:37:30.492480",
        "meta_mean_motion": 2.0056442,
        "meta_eccentricity": 0.68055916,
        "meta_inclination": 63.2636,
        "meta_ra_of_asc_node": 162.6946,
        "meta_arg_of_pericenter": 269.796,
        "meta_mean_anomaly": 18.652,
        "meta_ephemeris_type": 0,
        "meta_classification_type": "U",
        "meta_norad_cat_id": 66586,
        "meta_element_set_no": 999,
        "meta_rev_at_epoch": 36,
        "meta_bstar": -0.040942106,
        "meta_mean_motion_dot": 1.078e-05,
        "meta_mean_motion_ddot": 0,
        "tle_line1": "1 66586U 25269A   25343.23438070  .00001078  00000+0 -40942-1 0  9995",
        "tle_line2": "2 66586  63.2636 162.6946 6805591 269.7960  18.6520  2.00564420   360"
      },
      "geometry": {
        "type": "Point",
        "coordinates": [
          168.78927686679216,
          12.117311665269792
        ]
      }
    }
  ]
}